[{"OBJECT_NAME":"NOVASAR 1","OBJECT_ID":"2018-071B","EPOCH":"2026-03-09T22:37:23.630304","MEAN_MOTION":14.96279869,"ECCENTRICITY":0.00025467,"INCLINATION":97.522,"RA_OF_ASC_NODE":305.2476,"ARG_OF_PERICENTER":88.2237,"MEAN_ANOMALY":271.9277,"EPHEMERIS_TYPE":0,"CLASSIFICATION_TYPE":"U","NORAD_CAT_ID":43619,"ELEMENT_SET_NO":999,"REV_AT_EPOCH":40809,"BSTAR":0.00014385278,"MEAN_MOTION_DOT":1.57e-5,"MEAN_MOTION_DDOT":0},{"OBJECT_NAME":"STARLINK-5316","OBJECT_ID":"2023-010AN","EPOCH":"2026-03-09T22:49:06.160800","MEAN_MOTION":14.98327455,"ECCENTRICITY":0.00028885,"INCLINATION":70.0012,"RA_OF_ASC_NODE":23.987,"ARG_OF_PERICENTER":269.3873,"MEAN_ANOMALY":90.6955,"EPHEMERIS_TYPE":0,"CLASSIFICATION_TYPE":"U","NORAD_CAT_ID":55305,"ELEMENT_SET_NO":999,"REV_AT_EPOCH":17331,"BSTAR":-3.714607e-6,"MEAN_MOTION_DOT":-1.37e-6,"MEAN_MOTION_DDOT":0}]
